CCSDS_OMM_VERS = 2.0
CREATION_DATE  = 
ORIGINATOR     = 

OBJECT_NAME    = STARLINK-36390
OBJECT_ID      = 2026-035H
CENTER_NAME    = EARTH
REF_FRAME      = TEME
TIME_SYSTEM    = UTC
MEAN_ELEMENT_THEORY = SGP/SGP4

EPOCH          = 2026-03-11T04:00:00.999936
MEAN_MOTION    = 15.83886473
ECCENTRICITY   = .000123
INCLINATION    = 97.2717
RA_OF_ASC_NODE = 2.5956
ARG_OF_PERICENTER = 107.0644
MEAN_ANOMALY   = 253.6991

EPHEMERIS_TYPE = 0
CLASSIFICATION_TYPE = U
NORAD_CAT_ID   = 67886
ELEMENT_SET_NO = 999
REV_AT_EPOCH   = 404
BSTAR          = -.59222E-2
MEAN_MOTION_DOT = -.1169499E-1
MEAN_MOTION_DDOT = 0

CCSDS_OMM_VERS = 2.0
CREATION_DATE  = 
ORIGINATOR     = 

OBJECT_NAME    = STARLINK-36368
OBJECT_ID      = 2026-035J
CENTER_NAME    = EARTH
REF_FRAME      = TEME
TIME_SYSTEM    = UTC
MEAN_ELEMENT_THEORY = SGP/SGP4

EPOCH          = 2026-03-11T04:00:00.999936
MEAN_MOTION    = 15.83814990
ECCENTRICITY   = .0001127
INCLINATION    = 97.2716
RA_OF_ASC_NODE = 2.5974
ARG_OF_PERICENTER = 104.0095
MEAN_ANOMALY   = 261.3456

EPHEMERIS_TYPE = 0
CLASSIFICATION_TYPE = U
NORAD_CAT_ID   = 67887
ELEMENT_SET_NO = 999
REV_AT_EPOCH   = 399
BSTAR          = -.59443E-2
MEAN_MOTION_DOT = -.1169791E-1
MEAN_MOTION_DDOT = 0

CCSDS_OMM_VERS = 2.0
CREATION_DATE  = 
ORIGINATOR     = 

OBJECT_NAME    = STARLINK-36801
OBJECT_ID      = 2026-035K
CENTER_NAME    = EARTH
REF_FRAME      = TEME
TIME_SYSTEM    = UTC
MEAN_ELEMENT_THEORY = SGP/SGP4

EPOCH          = 2026-03-11T04:00:00.999936
MEAN_MOTION    = 15.83760326
ECCENTRICITY   = .0001216
INCLINATION    = 97.2711
RA_OF_ASC_NODE = 2.5991
ARG_OF_PERICENTER = 107.9617
MEAN_ANOMALY   = 261.9313

EPHEMERIS_TYPE = 0
CLASSIFICATION_TYPE = U
NORAD_CAT_ID   = 67888
ELEMENT_SET_NO = 999
REV_AT_EPOCH   = 399
BSTAR          = -.60344E-2
MEAN_MOTION_DOT = -.1182915E-1
MEAN_MOTION_DDOT = 0

CCSDS_OMM_VERS = 2.0
CREATION_DATE  = 
ORIGINATOR     = 

OBJECT_NAME    = STARLINK-36372
OBJECT_ID      = 2026-035L
CENTER_NAME    = EARTH
REF_FRAME      = TEME
TIME_SYSTEM    = UTC
MEAN_ELEMENT_THEORY = SGP/SGP4

EPOCH          = 2026-03-11T04:00:00.999936
MEAN_MOTION    = 15.83672406
ECCENTRICITY   = .0001201
INCLINATION    = 97.2700
RA_OF_ASC_NODE = 2.6019
ARG_OF_PERICENTER = 111.2390
MEAN_ANOMALY   = 267.5986

EPHEMERIS_TYPE = 0
CLASSIFICATION_TYPE = U
NORAD_CAT_ID   = 67889
ELEMENT_SET_NO = 999
REV_AT_EPOCH   = 399
BSTAR          = -.61368E-2
MEAN_MOTION_DOT = -.1196354E-1
MEAN_MOTION_DDOT = 0

CCSDS_OMM_VERS = 2.0
CREATION_DATE  = 
ORIGINATOR     = 

OBJECT_NAME    = STARLINK-36363
OBJECT_ID      = 2026-035M
CENTER_NAME    = EARTH
REF_FRAME      = TEME
TIME_SYSTEM    = UTC
MEAN_ELEMENT_THEORY = SGP/SGP4

EPOCH          = 2026-03-11T04:00:00.999936
MEAN_MOTION    = 15.83664315
ECCENTRICITY   = .0001302
INCLINATION    = 97.2708
RA_OF_ASC_NODE = 2.6012
ARG_OF_PERICENTER = 102.9410
MEAN_ANOMALY   = 271.6424

EPHEMERIS_TYPE = 0
CLASSIFICATION_TYPE = U
NORAD_CAT_ID   = 67890
ELEMENT_SET_NO = 999
REV_AT_EPOCH   = 399
BSTAR          = -.61325E-2
MEAN_MOTION_DOT = -.1195246E-1
MEAN_MOTION_DDOT = 0

CCSDS_OMM_VERS = 2.0
CREATION_DATE  = 
ORIGINATOR     = 

OBJECT_NAME    = STARLINK-36816
OBJECT_ID      = 2026-035N
CENTER_NAME    = EARTH
REF_FRAME      = TEME
TIME_SYSTEM    = UTC
MEAN_ELEMENT_THEORY = SGP/SGP4

EPOCH          = 2026-03-11T04:00:00.999936
MEAN_MOTION    = 15.82465947
ECCENTRICITY   = .0001271
INCLINATION    = 97.2677
RA_OF_ASC_NODE = 2.6251
ARG_OF_PERICENTER = 92.5920
MEAN_ANOMALY   = 345.6397

EPHEMERIS_TYPE = 0
CLASSIFICATION_TYPE = U
NORAD_CAT_ID   = 67891
ELEMENT_SET_NO = 999
REV_AT_EPOCH   = 388
BSTAR          = -.76133E-2
MEAN_MOTION_DOT = -.1376066E-1
MEAN_MOTION_DDOT = 0

CCSDS_OMM_VERS = 2.0
CREATION_DATE  = 
ORIGINATOR     = 

OBJECT_NAME    = STARLINK-36813
OBJECT_ID      = 2026-035P
CENTER_NAME    = EARTH
REF_FRAME      = TEME
TIME_SYSTEM    = UTC
MEAN_ELEMENT_THEORY = SGP/SGP4

EPOCH          = 2026-03-11T04:00:00.999936
MEAN_MOTION    = 15.82988244
ECCENTRICITY   = .0001209
INCLINATION    = 97.2670
RA_OF_ASC_NODE = 2.6121
ARG_OF_PERICENTER = 104.0734
MEAN_ANOMALY   = 307.1302

EPHEMERIS_TYPE = 0
CLASSIFICATION_TYPE = U
NORAD_CAT_ID   = 67892
ELEMENT_SET_NO = 999
REV_AT_EPOCH   = 399
BSTAR          = -.67406E-2
MEAN_MOTION_DOT = -.1263461E-1
MEAN_MOTION_DDOT = 0

CCSDS_OMM_VERS = 2.0
CREATION_DATE  = 
ORIGINATOR     = 

OBJECT_NAME    = STARLINK-36803
OBJECT_ID      = 2026-035Q
CENTER_NAME    = EARTH
REF_FRAME      = TEME
TIME_SYSTEM    = UTC
MEAN_ELEMENT_THEORY = SGP/SGP4

EPOCH          = 2026-03-11T04:00:00.999936
MEAN_MOTION    = 15.83550464
ECCENTRICITY   = .0001201
INCLINATION    = 97.2697
RA_OF_ASC_NODE = 2.6037
ARG_OF_PERICENTER = 106.5844
MEAN_ANOMALY   = 277.0077

EPHEMERIS_TYPE = 0
CLASSIFICATION_TYPE = U
NORAD_CAT_ID   = 67893
ELEMENT_SET_NO = 999
REV_AT_EPOCH   = 399
BSTAR          = -.61976E-2
MEAN_MOTION_DOT = -.1200688E-1
MEAN_MOTION_DDOT = 0

CCSDS_OMM_VERS = 2.0
CREATION_DATE  = 
ORIGINATOR     = 

OBJECT_NAME    = STARLINK-36846
OBJECT_ID      = 2026-035R
CENTER_NAME    = EARTH
REF_FRAME      = TEME
TIME_SYSTEM    = UTC
MEAN_ELEMENT_THEORY = SGP/SGP4

EPOCH          = 2026-03-11T04:00:00.999936
MEAN_MOTION    = 15.83305745
ECCENTRICITY   = .0001259
INCLINATION    = 97.2692
RA_OF_ASC_NODE = 2.6073
ARG_OF_PERICENTER = 111.9487
MEAN_ANOMALY   = 281.1198

EPHEMERIS_TYPE = 0
CLASSIFICATION_TYPE = U
NORAD_CAT_ID   = 67894
ELEMENT_SET_NO = 999
REV_AT_EPOCH   = 399
BSTAR          = -.64798E-2
MEAN_MOTION_DOT = -.1236417E-1
MEAN_MOTION_DDOT = 0

CCSDS_OMM_VERS = 2.0
CREATION_DATE  = 
ORIGINATOR     = 

OBJECT_NAME    = STARLINK-36866
OBJECT_ID      = 2026-035S
CENTER_NAME    = EARTH
REF_FRAME      = TEME
TIME_SYSTEM    = UTC
MEAN_ELEMENT_THEORY = SGP/SGP4

EPOCH          = 2026-03-11T04:00:00.999936
MEAN_MOTION    = 15.83231626
ECCENTRICITY   = .0001228
INCLINATION    = 97.2691
RA_OF_ASC_NODE = 2.6092
ARG_OF_PERICENTER = 92.3130
MEAN_ANOMALY   = 305.2907

EPHEMERIS_TYPE = 0
CLASSIFICATION_TYPE = U
NORAD_CAT_ID   = 67895
ELEMENT_SET_NO = 999
REV_AT_EPOCH   = 399
BSTAR          = -.65452E-2
MEAN_MOTION_DOT = -.1243597E-1
MEAN_MOTION_DDOT = 0

CCSDS_OMM_VERS = 2.0
CREATION_DATE  = 
ORIGINATOR     = 

OBJECT_NAME    = STARLINK-36877
OBJECT_ID      = 2026-035T
CENTER_NAME    = EARTH
REF_FRAME      = TEME
TIME_SYSTEM    = UTC
MEAN_ELEMENT_THEORY = SGP/SGP4

EPOCH          = 2026-03-11T04:00:00.999936
MEAN_MOTION    = 15.83411780
ECCENTRICITY   = .0001149
INCLINATION    = 97.2694
RA_OF_ASC_NODE = 2.6054
ARG_OF_PERICENTER = 87.7205
MEAN_ANOMALY   = 300.6794

EPHEMERIS_TYPE = 0
CLASSIFICATION_TYPE = U
NORAD_CAT_ID   = 67896
ELEMENT_SET_NO = 999
REV_AT_EPOCH   = 399
BSTAR          = -.63407E-2
MEAN_MOTION_DOT = -.1218173E-1
MEAN_MOTION_DDOT = 0

CCSDS_OMM_VERS = 2.0
CREATION_DATE  = 
ORIGINATOR     = 

OBJECT_NAME    = STARLINK-36870
OBJECT_ID      = 2026-035U
CENTER_NAME    = EARTH
REF_FRAME      = TEME
TIME_SYSTEM    = UTC
MEAN_ELEMENT_THEORY = SGP/SGP4

EPOCH          = 2026-03-11T04:00:00.999936
MEAN_MOTION    = 15.83104454
ECCENTRICITY   = .0001241
INCLINATION    = 97.2683
RA_OF_ASC_NODE = 2.6103
ARG_OF_PERICENTER = 103.2539
MEAN_ANOMALY   = 299.0233

EPHEMERIS_TYPE = 0
CLASSIFICATION_TYPE = U
NORAD_CAT_ID   = 67897
ELEMENT_SET_NO = 999
REV_AT_EPOCH   = 399
BSTAR          = -.66329E-2
MEAN_MOTION_DOT = -.1251659E-1
MEAN_MOTION_DDOT = 0

