STARLINK-36390          
1 67886U 26035H   26070.16667824 -.01169499  00000+0 -59222-2 0  9998
2 67886  97.2717   2.5956 0001230 107.0644 253.6991 15.83886473  4041
STARLINK-36368          
1 67887U 26035J   26070.16667824 -.01169791  00000+0 -59443-2 0  9999
2 67887  97.2716   2.5974 0001127 104.0095 261.3456 15.83814990  3993
STARLINK-36801          
1 67888U 26035K   26070.16667824 -.01182915  00000+0 -60344-2 0  9995
2 67888  97.2711   2.5991 0001216 107.9617 261.9313 15.83760326  3990
STARLINK-36372          
1 67889U 26035L   26070.16667824 -.01196354  00000+0 -61368-2 0  9995
2 67889  97.2700   2.6019 0001201 111.2390 267.5986 15.83672406  3990
STARLINK-36363          
1 67890U 26035M   26070.16667824 -.01195246  00000+0 -61325-2 0  9999
2 67890  97.2708   2.6012 0001302 102.9410 271.6424 15.83664315  3998
STARLINK-36816          
1 67891U 26035N   26070.16667824 -.01376066  00000+0 -76133-2 0  9994
2 67891  97.2677   2.6251 0001271  92.5920 345.6397 15.82465947  3882
STARLINK-36813          
1 67892U 26035P   26070.16667824 -.01263461  00000+0 -67406-2 0  9992
2 67892  97.2670   2.6121 0001209 104.0734 307.1302 15.82988244  3996
STARLINK-36803          
1 67893U 26035Q   26070.16667824 -.01200688  00000+0 -61976-2 0  9991
2 67893  97.2697   2.6037 0001201 106.5844 277.0077 15.83550464  3997
STARLINK-36846          
1 67894U 26035R   26070.16667824 -.01236417  00000+0 -64798-2 0  9996
2 67894  97.2692   2.6073 0001259 111.9487 281.1198 15.83305745  3999
STARLINK-36866          
1 67895U 26035S   26070.16667824 -.01243597  00000+0 -65452-2 0  9992
2 67895  97.2691   2.6092 0001228  92.3130 305.2907 15.83231626  3995
STARLINK-36877          
1 67896U 26035T   26070.16667824 -.01218173  00000+0 -63407-2 0  9993
2 67896  97.2694   2.6054 0001149  87.7205 300.6794 15.83411780  3994
STARLINK-36870          
1 67897U 26035U   26070.16667824 -.01251659  00000+0 -66329-2 0  9996
2 67897  97.2683   2.6103 0001241 103.2539 299.0233 15.83104454  3991
